start=new Date('2022-03-06T00:00:00.000Z').valueOf();
sats=[{"ECCENTRICITY":"0.00013910","OBJECT_ID":"2021-044BE","REV_AT_EPOCH":"360","BSTAR":"-0.00297280000000","MEAN_ELEMENT_THEORY":"SGP4","TIME_SYSTEM":"UTC","CENTER_NAME":"EARTH","OBJECT_TYPE":"PAYLOAD","PERIOD":"95.590","SEMIMAJOR_AXIS":"6925.263","SITE":"AFETR","TLE_LINE1":"1 48690U 21044BE  22064.91668981 -.00044320  00000-0 -29728-2 0  9995","ELEMENT_SET_NO":"999","DECAY_DATE":null,"ARG_OF_PERICENTER":"72.0988","MEAN_MOTION":"15.06427781","CLASSIFICATION_TYPE":"U","COUNTRY_CODE":"US","GP_ID":"198019502","APOAPSIS":"548.092","RCS_SIZE":"LARGE","OBJECT_NAME":"STARLINK-2740","MEAN_MOTION_DOT":"-0.00044320","PERIAPSIS":"546.165","MEAN_MOTION_DDOT":"0.0000000000000","FILE":"3346512","REF_FRAME":"TEME","LAUNCH_DATE":"2021-05-26","NORAD_CAT_ID":"48690","INCLINATION":"53.0540","MEAN_ANOMALY":"67.4122","EPOCH":"2022-03-05T22:00:01.999584","EPHEMERIS_TYPE":"0","TLE_LINE2":"2 48690  53.0540 177.2350 0001391  72.0988  67.4122 15.06427781  3601","RA_OF_ASC_NODE":"177.2350"},{"PERIAPSIS":"546.092","RCS_SIZE":"LARGE","MEAN_MOTION_DOT":"-0.00023095","OBJECT_NAME":"STARLINK-2750","CLASSIFICATION_TYPE":"U","GP_ID":"198019752","APOAPSIS":"548.206","COUNTRY_CODE":"US","DECAY_DATE":null,"MEAN_MOTION":"15.06421035","ARG_OF_PERICENTER":"55.6926","EPOCH":"2022-03-05T22:00:01.999584","TLE_LINE2":"2 48691  53.0605 172.2052 0001526  55.6926 231.2931 15.06421035  3602","RA_OF_ASC_NODE":"172.2052","EPHEMERIS_TYPE":"0","INCLINATION":"53.0605","MEAN_ANOMALY":"231.2931","FILE":"3346512","REF_FRAME":"TEME","NORAD_CAT_ID":"48691","LAUNCH_DATE":"2021-05-26","MEAN_MOTION_DDOT":"0.0000000000000","BSTAR":"-0.00153570000000","MEAN_ELEMENT_THEORY":"SGP4","REV_AT_EPOCH":"360","TIME_SYSTEM":"UTC","CENTER_NAME":"EARTH","ECCENTRICITY":"0.00015260","OBJECT_ID":"2021-044BF","ELEMENT_SET_NO":"999","TLE_LINE1":"1 48691U 21044BF  22064.91668981 -.00023095  00000-0 -15357-2 0  9995","SEMIMAJOR_AXIS":"6925.284","SITE":"AFETR","OBJECT_TYPE":"PAYLOAD","PERIOD":"95.591"},{"EPOCH":"2022-03-05T22:00:01.999584","EPHEMERIS_TYPE":"0","TLE_LINE2":"2 48692  53.0551 172.2395 0001491  78.1076 354.0078 15.06416484  3619","RA_OF_ASC_NODE":"172.2395","INCLINATION":"53.0551","MEAN_ANOMALY":"354.0078","FILE":"3346512","REF_FRAME":"TEME","NORAD_CAT_ID":"48692","LAUNCH_DATE":"2021-05-26","MEAN_MOTION_DDOT":"0.0000000000000","PERIAPSIS":"546.130","RCS_SIZE":"LARGE","OBJECT_NAME":"STARLINK-2752","MEAN_MOTION_DOT":"-0.00039168","CLASSIFICATION_TYPE":"U","COUNTRY_CODE":"US","GP_ID":"198020503","APOAPSIS":"548.196","DECAY_DATE":null,"ARG_OF_PERICENTER":"78.1076","MEAN_MOTION":"15.06416484","ELEMENT_SET_NO":"999","TLE_LINE1":"1 48692U 21044BG  22064.91668981 -.00039168  00000-0 -26239-2 0  9995","SEMIMAJOR_AXIS":"6925.298","SITE":"AFETR","OBJECT_TYPE":"PAYLOAD","PERIOD":"95.591","MEAN_ELEMENT_THEORY":"SGP4","BSTAR":"-0.00262390000000","REV_AT_EPOCH":"361","TIME_SYSTEM":"UTC","CENTER_NAME":"EARTH","OBJECT_ID":"2021-044BG","ECCENTRICITY":"0.00014910"},{"ELEMENT_SET_NO":"999","TLE_LINE1":"1 48693U 21044BH  22064.91668981 -.00029394  00000-0 -19625-2 0  9997","SEMIMAJOR_AXIS":"6925.344","SITE":"AFETR","PERIOD":"95.592","OBJECT_TYPE":"PAYLOAD","TIME_SYSTEM":"UTC","CENTER_NAME":"EARTH","BSTAR":"-0.00196250000000","MEAN_ELEMENT_THEORY":"SGP4","REV_AT_EPOCH":"360","OBJECT_ID":"2021-044BH","ECCENTRICITY":"0.00013370","EPHEMERIS_TYPE":"0","TLE_LINE2":"2 48693  53.0553 177.2381 0001337  64.7187 259.9283 15.06401442  3603","RA_OF_ASC_NODE":"177.2381","EPOCH":"2022-03-05T22:00:01.999584","MEAN_ANOMALY":"259.9283","INCLINATION":"53.0553","LAUNCH_DATE":"2021-05-26","NORAD_CAT_ID":"48693","REF_FRAME":"TEME","FILE":"3346512","MEAN_MOTION_DDOT":"0.0000000000000","PERIAPSIS":"546.283","RCS_SIZE":"LARGE","OBJECT_NAME":"STARLINK-2618","MEAN_MOTION_DOT":"-0.00029394","GP_ID":"198020754","COUNTRY_CODE":"US","APOAPSIS":"548.135","CLASSIFICATION_TYPE":"U","ARG_OF_PERICENTER":"64.7187","MEAN_MOTION":"15.06401442","DECAY_DATE":null},{"MEAN_MOTION_DDOT":"0.0000000000000","LAUNCH_DATE":"2021-05-26","NORAD_CAT_ID":"48694","FILE":"3346512","REF_FRAME":"TEME","MEAN_ANOMALY":"84.8879","INCLINATION":"53.0541","TLE_LINE2":"2 48694  53.0541 182.2371 0001631  47.0990  84.8879 15.06405859  3601","EPHEMERIS_TYPE":"0","RA_OF_ASC_NODE":"182.2371","EPOCH":"2022-03-05T22:00:01.999584","ARG_OF_PERICENTER":"47.0990","MEAN_MOTION":"15.06405859","DECAY_DATE":null,"COUNTRY_CODE":"US","GP_ID":"198019003","APOAPSIS":"548.325","CLASSIFICATION_TYPE":"U","RCS_SIZE":"LARGE","OBJECT_NAME":"STARLINK-2748","MEAN_MOTION_DOT":"-0.00011773","PERIAPSIS":"546.066","PERIOD":"95.592","OBJECT_TYPE":"PAYLOAD","SEMIMAJOR_AXIS":"6925.331","SITE":"AFETR","TLE_LINE1":"1 48694U 21044BJ  22064.91668981 -.00011773  00000-0 -77263-3 0  9993","ELEMENT_SET_NO":"999","ECCENTRICITY":"0.00016310","OBJECT_ID":"2021-044BJ","TIME_SYSTEM":"UTC","CENTER_NAME":"EARTH","BSTAR":"-0.00077263000000","REV_AT_EPOCH":"360","MEAN_ELEMENT_THEORY":"SGP4"},{"TIME_SYSTEM":"UTC","CENTER_NAME":"EARTH","REV_AT_EPOCH":"361","BSTAR":"-0.00079082000000","MEAN_ELEMENT_THEORY":"SGP4","ECCENTRICITY":"0.00013840","OBJECT_ID":"2021-044BK","ELEMENT_SET_NO":"999","TLE_LINE1":"1 48695U 21044BK  22064.91668981 -.00012041  00000-0 -79082-3 0  9994","SEMIMAJOR_AXIS":"6925.344","SITE":"AFETR","PERIOD":"95.592","OBJECT_TYPE":"PAYLOAD","PERIAPSIS":"546.251","MEAN_MOTION_DOT":"-0.00012041","RCS_SIZE":"LARGE","OBJECT_NAME":"STARLINK-2616","GP_ID":"198019253","APOAPSIS":"548.168","COUNTRY_CODE":"US","CLASSIFICATION_TYPE":"U","ARG_OF_PERICENTER":"68.1764","MEAN_MOTION":"15.06401347","DECAY_DATE":null,"EPHEMERIS_TYPE":"0","TLE_LINE2":"2 48695  53.0536 182.2354 0001384  68.1764 328.9656 15.06401347  3619","RA_OF_ASC_NODE":"182.2354","EPOCH":"2022-03-05T22:00:01.999584","INCLINATION":"53.0536","MEAN_ANOMALY":"328.9656","NORAD_CAT_ID":"48695","LAUNCH_DATE":"2021-05-26","REF_FRAME":"TEME","FILE":"3346512","MEAN_MOTION_DDOT":"0.0000000000000"},{"RA_OF_ASC_NODE":"187.9152","TLE_LINE2":"2 48696  53.0546 187.9152 0001563  63.3930 296.7219 15.06421140 43333","EPHEMERIS_TYPE":"0","EPOCH":"2022-03-05T18:25:13.090368","INCLINATION":"53.0546","MEAN_ANOMALY":"296.7219","LAUNCH_DATE":"2021-05-26","NORAD_CAT_ID":"48696","REF_FRAME":"TEME","FILE":"3346512","MEAN_MOTION_DDOT":"0.0000000000000","PERIAPSIS":"546.066","MEAN_MOTION_DOT":"0.00014848","RCS_SIZE":"LARGE","OBJECT_NAME":"STARLINK-2753","APOAPSIS":"548.231","GP_ID":"198020004","COUNTRY_CODE":"US","CLASSIFICATION_TYPE":"U","MEAN_MOTION":"15.06421140","ARG_OF_PERICENTER":"63.3930","DECAY_DATE":null,"ELEMENT_SET_NO":"999","TLE_LINE1":"1 48696U 21044BL  22064.76751262  .00014848  00000-0  10130-2 0  9996","SITE":"AFETR","SEMIMAJOR_AXIS":"6925.284","PERIOD":"95.591","OBJECT_TYPE":"PAYLOAD","CENTER_NAME":"EARTH","TIME_SYSTEM":"UTC","MEAN_ELEMENT_THEORY":"SGP4","BSTAR":"0.00101300000000","REV_AT_EPOCH":"4333","OBJECT_ID":"2021-044BL","ECCENTRICITY":"0.00015630"},{"EPOCH":"2022-03-05T19:12:57.614112","EPHEMERIS_TYPE":"0","TLE_LINE2":"2 48697  53.0554 187.7691 0001475  60.5216 299.5920 15.06412551 43333","RA_OF_ASC_NODE":"187.7691","INCLINATION":"53.0554","MEAN_ANOMALY":"299.5920","REF_FRAME":"TEME","FILE":"3346512","NORAD_CAT_ID":"48697","LAUNCH_DATE":"2021-05-26","MEAN_MOTION_DDOT":"0.0000000000000","PERIAPSIS":"546.154","MEAN_MOTION_DOT":"0.00002299","RCS_SIZE":"LARGE","OBJECT_NAME":"STARLINK-2715","CLASSIFICATION_TYPE":"U","APOAPSIS":"548.197","GP_ID":"198020255","COUNTRY_CODE":"US","DECAY_DATE":null,"ARG_OF_PERICENTER":"60.5216","MEAN_MOTION":"15.06412551","ELEMENT_SET_NO":"999","TLE_LINE1":"1 48697U 21044BM  22064.80066683  .00002299  00000-0  17311-3 0  9994","SEMIMAJOR_AXIS":"6925.310","SITE":"AFETR","OBJECT_TYPE":"PAYLOAD","PERIOD":"95.591","BSTAR":"0.00017311000000","REV_AT_EPOCH":"4333","MEAN_ELEMENT_THEORY":"SGP4","TIME_SYSTEM":"UTC","CENTER_NAME":"EARTH","ECCENTRICITY":"0.00014750","OBJECT_ID":"2021-044BM"},{"MEAN_MOTION_DDOT":"0.0000000000000","NORAD_CAT_ID":"48879","LAUNCH_DATE":"2021-06-30","FILE":"3346124","REF_FRAME":"TEME","INCLINATION":"97.5289","MEAN_ANOMALY":"203.3761","TLE_LINE2":"2 48879  97.5289 196.4355 0003431 200.1492 203.3761 15.16001810 38837","RA_OF_ASC_NODE":"196.4355","EPHEMERIS_TYPE":"0","EPOCH":"2022-03-05T22:00:01.999584","ARG_OF_PERICENTER":"200.1492","MEAN_MOTION":"15.16001810","DECAY_DATE":null,"GP_ID":"197987039","APOAPSIS":"520.307","COUNTRY_CODE":"US","CLASSIFICATION_TYPE":"U","RCS_SIZE":"LARGE","OBJECT_NAME":"STARLINK-3003","MEAN_MOTION_DOT":"-0.00050302","PERIAPSIS":"515.575","PERIOD":"94.987","OBJECT_TYPE":"PAYLOAD","SEMIMAJOR_AXIS":"6896.076","SITE":"AFETR","TLE_LINE1":"1 48879U 21059A   22064.91668981 -.00050302  00000-0 -26353-2 0  9998","ELEMENT_SET_NO":"999","OBJECT_ID":"2021-059A","ECCENTRICITY":"0.00034310","TIME_SYSTEM":"UTC","CENTER_NAME":"EARTH","MEAN_ELEMENT_THEORY":"SGP4","BSTAR":"-0.00263530000000","REV_AT_EPOCH":"3883"},{"OBJECT_TYPE":"PAYLOAD","PERIOD":"94.987","SEMIMAJOR_AXIS":"6896.076","SITE":"AFETR","TLE_LINE1":"1 48880U 21059B   22064.91668981 -.00049759  00000-0 -26062-2 0  9991","ELEMENT_SET_NO":"999","OBJECT_ID":"2021-059B","ECCENTRICITY":"0.00047920","REV_AT_EPOCH":"362","BSTAR":"-0.00260620000000","MEAN_ELEMENT_THEORY":"SGP4","TIME_SYSTEM":"UTC","CENTER_NAME":"EARTH","MEAN_MOTION_DDOT":"0.0000000000000","REF_FRAME":"TEME","FILE":"3346512","NORAD_CAT_ID":"48880","LAUNCH_DATE":"2021-06-30","MEAN_ANOMALY":"237.8867","INCLINATION":"97.5287","EPOCH":"2022-03-05T22:00:01.999584","TLE_LINE2":"2 48880  97.5287 196.4419 0004792 185.1715 237.8867 15.16001805  3621","EPHEMERIS_TYPE":"0","RA_OF_ASC_NODE":"196.4419","DECAY_DATE":null,"MEAN_MOTION":"15.16001805","ARG_OF_PERICENTER":"185.1715","CLASSIFICATION_TYPE":"U","GP_ID":"198019773","COUNTRY_CODE":"US","APOAPSIS":"521.245","MEAN_MOTION_DOT":"-0.00049759","RCS_SIZE":"LARGE","OBJECT_NAME":"STARLINK-3004","PERIAPSIS":"514.636"}];
